{
  "type": "FeatureCollection",
  "metadata": {
    "title": "New Zealand Hot Springs and Thermal Pools",
    "description": "Consolidated from NZHotPools, Wikipedia, Newswire, HotSpringsGuides, and the Hot Springs of NZ guidebook",
    "source_urls": {
      "nzhotpools": "https://nzhotpools.co.nz/hot-pools/",
      "wikipedia": "https://en.wikipedia.org/wiki/Hot_springs_in_New_Zealand",
      "newswire": "https://newswire.co.nz/data/hot-springs-nz/",
      "hotspringsguides": "https://www.hotspringsguides.com/country/new-zealand"
    },
    "geocode_method": "Google Geocoding API (WorldStudioFinder algorithm)",
    "total_features": 129,
    "features_with_coords": 129
  },
  "features": [
    {
      "type": "Feature",
      "geometry": {
        "type": "Point",
        "coordinates": [
          173.857896,
          -35.406515
        ]
      },
      "properties": {
        "id": "waiariki_ngawha",
        "name": "Waiariki Pools, Ngawha Springs",
        "region": "Northland",
        "island": "North",
        "type": "commercial",
        "status": "open",
        "address": "Ngawha Springs Road, Ngawha Springs",
        "geocode_status": "ok",
        "coord_source": "google_geocode",
        "rating": 8.3,
        "votes": 74,
        "sources": [
          "nzhotpools"
        ]
      }
    },
    {
      "type": "Feature",
      "geometry": {
        "type": "Point",
        "coordinates": [
          173.858744,
          -35.408166
        ]
      },
      "properties": {
        "id": "ngawha_spa",
        "name": "Ngawha Spa",
        "region": "Northland",
        "island": "North",
        "type": "commercial",
        "status": "open",
        "address": "Ngawha Springs Road, Ngawha Springs, Kaikohe",
        "geocode_status": "ok",
        "coord_source": "google_geocode",
        "rating": 7.84,
        "votes": 63,
        "sources": [
          "nzhotpools"
        ]
      }
    },
    {
      "type": "Feature",
      "geometry": {
        "type": "Point",
        "coordinates": [
          173.858744,
          -35.408166
        ]
      },
      "properties": {
        "id": "nga_waiariki_ngawha",
        "name": "Nga Waiariki Ngawha Springs",
        "region": "Northland",
        "island": "North",
        "type": "commercial",
        "status": "open",
        "address": "Ngawha Springs, Kaikohe",
        "geocode_status": "ok",
        "coord_source": "google_geocode",
        "description": "Paid Maori-owned geothermal pool complex near Kaikohe with 16 mineral pools at varying temperatures and colours",
        "sources": [
          "nzhotpools",
          "hotspringsguides"
        ]
      }
    },
    {
      "type": "Feature",
      "geometry": {
        "type": "Point",
        "coordinates": [
          174.431648,
          -36.659666
        ]
      },
      "properties": {
        "id": "parakai_accommodation",
        "name": "Parakai Accommodation With Thermal Pools",
        "region": "Auckland",
        "island": "North",
        "type": "guests_only",
        "status": "open",
        "address": "Parakai Township",
        "geocode_status": "ok",
        "coord_source": "google_geocode",
        "rating": 5.8,
        "votes": 5,
        "sources": [
          "nzhotpools"
        ]
      }
    },
    {
      "type": "Feature",
      "geometry": {
        "type": "Point",
        "coordinates": [
          174.430852,
          -36.65975
        ]
      },
      "properties": {
        "id": "club_oasis",
        "name": "Club Oasis",
        "region": "Auckland",
        "island": "North",
        "type": "guests_only",
        "status": "open",
        "address": "167 Parkhurst Road, Parakai",
        "geocode_status": "ok",
        "coord_source": "google_geocode",
        "rating": 3.67,
        "votes": 6,
        "sources": [
          "nzhotpools"
        ]
      }
    },
    {
      "type": "Feature",
      "geometry": {
        "type": "Point",
        "coordinates": [
          174.706476,
          -36.544917
        ]
      },
      "properties": {
        "id": "waiwera_thermal_resort",
        "name": "Waiwera Thermal Resort and Spa",
        "region": "Auckland",
        "island": "North",
        "type": "commercial",
        "status": "closed",
        "address": "21 Waiwera Road, Waiwera 0950",
        "geocode_status": "ok",
        "coord_source": "google_geocode",
        "rating": 5.38,
        "votes": 136,
        "description": "Est. 1845, oldest commercial thermal resort in NZ. Closed since 2018.",
        "sources": [
          "nzhotpools",
          "newswire",
          "wikipedia"
        ]
      }
    },
    {
      "type": "Feature",
      "geometry": {
        "type": "Point",
        "coordinates": [
          174.432454,
          -36.660374
        ]
      },
      "properties": {
        "id": "palm_springs",
        "name": "Palm Springs Geothermal Pools",
        "region": "Auckland",
        "island": "North",
        "type": "commercial",
        "status": "open",
        "address": "155 Parkhurst Road, Parakai",
        "geocode_status": "ok",
        "coord_source": "google_geocode",
        "rating": 5.18,
        "votes": 93,
        "description": "Paid geothermal pool complex in Parakai, one hour northwest of Auckland",
        "sources": [
          "nzhotpools",
          "hotspringsguides"
        ]
      }
    },
    {
      "type": "Feature",
      "geometry": {
        "type": "Point",
        "coordinates": [
          174.433678,
          -36.65956
        ]
      },
      "properties": {
        "id": "parakai_springs",
        "name": "Parakai Springs",
        "region": "Auckland",
        "island": "North",
        "type": "commercial",
        "status": "open",
        "address": "150 Parkhurst Road, Parakai",
        "geocode_status": "ok",
        "coord_source": "google_geocode",
        "rating": 5.54,
        "votes": 63,
        "description": "Kaipatiki Hot Springs (formerly Parakai), est. 1922. $24 adult, $14 child.",
        "sources": [
          "nzhotpools",
          "newswire"
        ]
      }
    },
    {
      "type": "Feature",
      "geometry": {
        "type": "Point",
        "coordinates": [
          174.85075,
          -36.977686
        ]
      },
      "properties": {
        "id": "peach_tree_hot_springs",
        "name": "Peach Tree Hot Springs",
        "region": "Auckland",
        "island": "North",
        "type": "in_nature",
        "status": "open",
        "address": "Great Barrier Island",
        "geocode_status": "ok",
        "coord_source": "google_geocode",
        "sources": [
          "nzhotpools"
        ]
      }
    },
    {
      "type": "Feature",
      "geometry": {
        "type": "Point",
        "coordinates": [
          175.426682,
          -36.2216
        ]
      },
      "properties": {
        "id": "kaitoke_hot_springs",
        "name": "Kaitoke Hot Springs",
        "region": "Auckland",
        "island": "North",
        "type": "in_nature",
        "status": "open",
        "address": "Great Barrier Island",
        "geocode_status": "ok",
        "coord_source": "google_geocode",
        "rating": 9.25,
        "votes": 4,
        "description": "Free natural hot spring pools on Great Barrier Island, 40-minute walk through wetland bush",
        "sources": [
          "nzhotpools",
          "hotspringsguides",
          "newswire",
          "wikipedia"
        ]
      }
    },
    {
      "type": "Feature",
      "geometry": {
        "type": "Point",
        "coordinates": [
          175.702491,
          -36.829127
        ]
      },
      "properties": {
        "id": "the_lost_spring",
        "name": "The Lost Spring",
        "region": "Coromandel",
        "island": "North",
        "type": "commercial",
        "status": "open",
        "address": "121A Cook Drive, Whitianga 3510",
        "geocode_status": "ok",
        "coord_source": "google_geocode",
        "rating": 7.08,
        "votes": 37,
        "temperature": "30-39C",
        "price": "$45 adult, $25 child",
        "description": "Est. 2008, boutique thermal complex. 660m artesian bore tapping thermal aquifer.",
        "sources": [
          "nzhotpools",
          "hotspringsguides",
          "newswire",
          "wikipedia"
        ]
      }
    },
    {
      "type": "Feature",
      "geometry": {
        "type": "Point",
        "coordinates": [
          175.822298,
          -36.890237
        ]
      },
      "properties": {
        "id": "hot_water_beach",
        "name": "Hot Water Beach",
        "region": "Coromandel",
        "island": "North",
        "type": "in_nature",
        "status": "open",
        "address": "East Coast of Coromandel Peninsula, Hahei",
        "geocode_status": "ok",
        "coord_source": "google_geocode",
        "rating": 6.88,
        "votes": 8,
        "temperature": "up to 64C",
        "price": "Free (spade hire $5)",
        "description": "Dig your own hot pool in the sand at low tide. Visit within 2 hours of low tide.",
        "sources": [
          "nzhotpools",
          "hotspringsguides",
          "newswire",
          "wikipedia"
        ]
      }
    },
    {
      "type": "Feature",
      "geometry": {
        "type": "Point",
        "coordinates": [
          175.498121,
          -36.758709
        ]
      },
      "properties": {
        "id": "hot_water_beach_holiday_park",
        "name": "Hot Water Beach TOP 10 Holiday Park",
        "region": "Coromandel",
        "island": "North",
        "type": "commercial",
        "status": "open",
        "address": "Hot Water Beach, Whenuakite",
        "geocode_status": "ok",
        "coord_source": "google_geocode",
        "rating": 1.0,
        "votes": 2,
        "sources": [
          "nzhotpools"
        ]
      }
    },
    {
      "type": "Feature",
      "geometry": {
        "type": "Point",
        "coordinates": [
          175.71659,
          -37.544734
        ]
      },
      "properties": {
        "id": "swimzone_te_aroha",
        "name": "Swimzone Te Aroha",
        "region": "Waikato",
        "island": "North",
        "type": "commercial",
        "status": "open",
        "address": "Te Aroha Hot Springs Domain, Boundary Street, Te Aroha",
        "geocode_status": "ok",
        "coord_source": "google_geocode",
        "rating": 7.0,
        "votes": 1,
        "sources": [
          "nzhotpools"
        ]
      }
    },
    {
      "type": "Feature",
      "geometry": {
        "type": "Point",
        "coordinates": [
          175.719566,
          -37.56597
        ]
      },
      "properties": {
        "id": "te_aroha_holiday_park",
        "name": "Te Aroha Holiday Park and Hot Pools",
        "region": "Waikato",
        "island": "North",
        "type": "commercial",
        "status": "open",
        "address": "Stanley Road, Te Aroha",
        "geocode_status": "ok",
        "coord_source": "google_geocode",
        "rating": 4.71,
        "votes": 52,
        "sources": [
          "nzhotpools"
        ]
      }
    },
    {
      "type": "Feature",
      "geometry": {
        "type": "Point",
        "coordinates": [
          175.715887,
          -37.543855
        ]
      },
      "properties": {
        "id": "te_aroha_mineral_spas",
        "name": "Te Aroha Mineral Spas",
        "region": "Waikato",
        "island": "North",
        "type": "commercial",
        "status": "open",
        "address": "Te Aroha Hot Springs Domain, Boundary Street, Te Aroha",
        "geocode_status": "ok",
        "coord_source": "google_geocode",
        "rating": 6.35,
        "votes": 34,
        "temperature": "35-40C",
        "price": "$15-30 private bath",
        "description": "Est. 1882. NZ's only soda-water spa. Heritage-listed Edwardian bathhouse. Sodium bicarbonate-rich, naturally carbonated.",
        "sources": [
          "nzhotpools",
          "hotspringsguides",
          "newswire",
          "wikipedia"
        ]
      }
    },
    {
      "type": "Feature",
      "geometry": {
        "type": "Point",
        "coordinates": [
          175.33544,
          -37.205049
        ]
      },
      "properties": {
        "id": "miranda_holiday_park",
        "name": "Miranda Holiday Park",
        "region": "Waikato",
        "island": "North",
        "type": "commercial",
        "status": "open",
        "address": "595 Front Miranda Road, Waitakaruru RD6 Thames",
        "geocode_status": "ok",
        "coord_source": "google_geocode",
        "rating": 6.63,
        "votes": 52,
        "sources": [
          "nzhotpools"
        ]
      }
    },
    {
      "type": "Feature",
      "geometry": {
        "type": "Point",
        "coordinates": [
          175.331913,
          -37.207546
        ]
      },
      "properties": {
        "id": "miranda_hot_springs",
        "name": "Miranda Hot Springs",
        "region": "Waikato",
        "island": "North",
        "type": "commercial",
        "status": "closed",
        "address": "Front Miranda Road, Waitakaruru",
        "geocode_status": "ok",
        "coord_source": "google_geocode",
        "rating": 5.26,
        "votes": 103,
        "temperature": "36-40C",
        "price": "$22 adult, $11 child",
        "description": "Est. 1962. Closed. Near Pukorokoro Miranda Shorebird Centre and Firth of Thames Ramsar wetland.",
        "sources": [
          "nzhotpools",
          "newswire",
          "wikipedia"
        ]
      }
    },
    {
      "type": "Feature",
      "geometry": {
        "type": "Point",
        "coordinates": [
          174.827974,
          -38.044677
        ]
      },
      "properties": {
        "id": "kawhia_springs",
        "name": "Kawhia Springs (Te Puia Springs)",
        "region": "Waikato",
        "island": "North",
        "type": "in_nature",
        "status": "open",
        "address": "Te Puia Beach, Kawhia",
        "geocode_status": "ok",
        "coord_source": "google_geocode",
        "rating": 8.5,
        "votes": 6,
        "temperature": "up to 60C",
        "price": "Free (BYO spade)",
        "description": "Dig your own hot pool at low tide on black sand beach. West coast, much quieter than Coromandel.",
        "sources": [
          "nzhotpools",
          "hotspringsguides",
          "newswire",
          "wikipedia"
        ]
      }
    },
    {
      "type": "Feature",
      "geometry": {
        "type": "Point",
        "coordinates": [
          174.99963,
          -37.691283
        ]
      },
      "properties": {
        "id": "waingaro_hot_springs",
        "name": "Waingaro Hot Springs",
        "region": "Waikato",
        "island": "North",
        "type": "commercial",
        "status": "open",
        "address": "Waingaro Road, Waingaro",
        "geocode_status": "ok",
        "coord_source": "google_geocode",
        "rating": 4.07,
        "votes": 316,
        "temperature": "36-41C",
        "price": "$22 adult, $12 child",
        "description": "Est. 1956. Naturally thermal water at 41C source. Holiday park with camping, cabins, motel. 30 min from Hamilton or Raglan.",
        "sources": [
          "nzhotpools",
          "newswire"
        ]
      }
    },
    {
      "type": "Feature",
      "geometry": {
        "type": "Point",
        "coordinates": [
          175.803718,
          -37.953413
        ]
      },
      "properties": {
        "id": "okoroire_hot_springs",
        "name": "Okoroire Hot Springs Hotel",
        "region": "Waikato",
        "island": "North",
        "type": "commercial",
        "status": "open",
        "address": "18 Sommerville Road, Okoroire 3485",
        "geocode_status": "ok",
        "coord_source": "google_geocode",
        "rating": 6.27,
        "votes": 22,
        "temperature": "34-39C",
        "price": "Hotel guests free; day-pass available",
        "description": "Est. 1889. Heritage Victorian-era stone walls. Outdoor pool in fern grove.",
        "sources": [
          "nzhotpools",
          "newswire",
          "wikipedia"
        ]
      }
    },
    {
      "type": "Feature",
      "geometry": {
        "type": "Point",
        "coordinates": [
          175.838605,
          -37.787841
        ]
      },
      "properties": {
        "id": "opal_hot_springs",
        "name": "Opal Hot Springs and Holiday Park",
        "region": "Waikato",
        "island": "North",
        "type": "commercial",
        "status": "open",
        "address": "Okauia Springs Road, Matamata",
        "geocode_status": "ok",
        "coord_source": "google_geocode",
        "rating": 5.6,
        "votes": 40,
        "temperature": "34-39C",
        "price": "$13 adult, $7 child",
        "description": "Est. 1957. Family destination. 15 min from Hobbiton Movie Set.",
        "sources": [
          "nzhotpools",
          "newswire"
        ]
      }
    },
    {
      "type": "Feature",
      "geometry": {
        "type": "Point",
        "coordinates": [
          175.023346,
          -37.619086
        ]
      },
      "properties": {
        "id": "te_maire_hot_springs",
        "name": "Te Maire Hot Springs",
        "region": "Waikato",
        "island": "North",
        "type": "private_property",
        "status": "open",
        "address": "Naike, State Highway 22",
        "geocode_status": "ok",
        "coord_source": "google_geocode",
        "rating": 3.25,
        "votes": 4,
        "sources": [
          "nzhotpools"
        ]
      }
    },
    {
      "type": "Feature",
      "geometry": {
        "type": "Point",
        "coordinates": [
          175.437557,
          -37.720731
        ]
      },
      "properties": {
        "id": "crystal_hot_springs",
        "name": "Crystal Hot Springs",
        "region": "Waikato",
        "island": "North",
        "type": "commercial",
        "status": "open",
        "address": "Matamata",
        "geocode_status": "ok",
        "coord_source": "google_geocode",
        "sources": [
          "wikipedia"
        ]
      }
    },
    {
      "type": "Feature",
      "geometry": {
        "type": "Point",
        "coordinates": [
          176.207955,
          -37.664633
        ]
      },
      "properties": {
        "id": "mount_maunganui_hot_pools",
        "name": "Mount Maunganui Hot Salt Water Pools",
        "region": "Bay of Plenty",
        "island": "North",
        "type": "commercial",
        "status": "open",
        "address": "Adams Avenue, Mount Maunganui",
        "geocode_status": "ok",
        "coord_source": "google_geocode",
        "rating": 6.38,
        "votes": 91,
        "temperature": "34-39C",
        "price": "$16 adult, $8 child",
        "description": "Est. 1928. Saltwater thermal - warm seawater from thermally-elevated aquifer. At base of Mauao.",
        "sources": [
          "nzhotpools",
          "newswire",
          "wikipedia"
        ]
      }
    },
    {
      "type": "Feature",
      "geometry": {
        "type": "Point",
        "coordinates": [
          176.123647,
          -37.705465
        ]
      },
      "properties": {
        "id": "fernland_spa",
        "name": "Fernland Spa Mineral Hot Pools",
        "region": "Bay of Plenty",
        "island": "North",
        "type": "commercial",
        "status": "open",
        "address": "250 Cambridge Road, Tauranga",
        "geocode_status": "ok",
        "coord_source": "google_geocode",
        "rating": 7.59,
        "votes": 22,
        "sources": [
          "nzhotpools"
        ]
      }
    },
    {
      "type": "Feature",
      "geometry": {
        "type": "Point",
        "coordinates": [
          176.141449,
          -37.772335
        ]
      },
      "properties": {
        "id": "oropi_hot_pools",
        "name": "Oropi Hot Pools, Cafe & Beauty Spa",
        "region": "Bay of Plenty",
        "island": "North",
        "type": "commercial",
        "status": "open",
        "address": "1 Warner Road, Oropi",
        "geocode_status": "ok",
        "coord_source": "google_geocode",
        "rating": 6.72,
        "votes": 29,
        "sources": [
          "nzhotpools"
        ]
      }
    },
    {
      "type": "Feature",
      "geometry": {
        "type": "Point",
        "coordinates": [
          175.966583,
          -37.448296
        ]
      },
      "properties": {
        "id": "athenree_hot_springs",
        "name": "Athenree Hot Springs and Holiday Park",
        "region": "Bay of Plenty",
        "island": "North",
        "type": "commercial",
        "status": "open",
        "address": "Athenree Road, Athenree, Tauranga",
        "geocode_status": "ok",
        "coord_source": "google_geocode",
        "rating": 6.67,
        "votes": 12,
        "sources": [
          "nzhotpools"
        ]
      }
    },
    {
      "type": "Feature",
      "geometry": {
        "type": "Point",
        "coordinates": [
          175.920586,
          -37.554914
        ]
      },
      "properties": {
        "id": "dave_hume_pool",
        "name": "Dave Hume Pool, Katikati",
        "region": "Bay of Plenty",
        "island": "North",
        "type": "commercial",
        "status": "open",
        "address": "Carisbrooke Street, Katikati",
        "geocode_status": "ok",
        "coord_source": "google_geocode",
        "rating": 2.0,
        "votes": 1,
        "sources": [
          "nzhotpools"
        ]
      }
    },
    {
      "type": "Feature",
      "geometry": {
        "type": "Point",
        "coordinates": [
          175.883232,
          -37.589011
        ]
      },
      "properties": {
        "id": "sapphire_springs",
        "name": "Sapphire Springs Holiday Park",
        "region": "Bay of Plenty",
        "island": "North",
        "type": "commercial",
        "status": "open",
        "address": "274 Hot Springs Road, Katikati",
        "geocode_status": "ok",
        "coord_source": "google_geocode",
        "rating": 5.04,
        "votes": 49,
        "sources": [
          "nzhotpools"
        ]
      }
    },
    {
      "type": "Feature",
      "geometry": {
        "type": "Point",
        "coordinates": [
          176.037341,
          -37.668192
        ]
      },
      "properties": {
        "id": "plummers_point",
        "name": "Plummers Point Caravan Park and Hot Mineral Pools",
        "region": "Bay of Plenty",
        "island": "North",
        "type": "commercial",
        "status": "closed",
        "address": "Station Road, Tauranga",
        "geocode_status": "ok",
        "coord_source": "google_geocode",
        "rating": 3.25,
        "votes": 4,
        "sources": [
          "nzhotpools"
        ]
      }
    },
    {
      "type": "Feature",
      "geometry": {
        "type": "Point",
        "coordinates": [
          176.209759,
          -37.724755
        ]
      },
      "properties": {
        "id": "welcome_bay_hot_pools",
        "name": "Welcome Bay Hot Pools and Holiday Park",
        "region": "Bay of Plenty",
        "island": "North",
        "type": "commercial",
        "status": "open",
        "address": "Welcome Bay Road, Tauranga",
        "geocode_status": "ok",
        "coord_source": "google_geocode",
        "rating": 6.15,
        "votes": 40,
        "sources": [
          "nzhotpools"
        ]
      }
    },
    {
      "type": "Feature",
      "geometry": {
        "type": "Point",
        "coordinates": [
          176.158777,
          -37.730318
        ]
      },
      "properties": {
        "id": "sanctuary_point",
        "name": "Sanctuary Point",
        "region": "Bay of Plenty",
        "island": "North",
        "type": "commercial",
        "status": "closed",
        "address": "140 State Highway 29, Tauranga",
        "geocode_status": "ok",
        "coord_source": "google_geocode",
        "rating": 3.83,
        "votes": 6,
        "sources": [
          "nzhotpools"
        ]
      }
    },
    {
      "type": "Feature",
      "geometry": {
        "type": "Point",
        "coordinates": [
          176.404579,
          -37.806329
        ]
      },
      "properties": {
        "id": "paengaroa_motor_lodge",
        "name": "Paengaroa Motor Lodge",
        "region": "Bay of Plenty",
        "island": "North",
        "type": "commercial",
        "status": "closed",
        "address": "84 State Highway 33, Paengaroa, Te Puke",
        "geocode_status": "ok",
        "coord_source": "google_geocode",
        "rating": 4.67,
        "votes": 3,
        "sources": [
          "nzhotpools"
        ]
      }
    },
    {
      "type": "Feature",
      "geometry": {
        "type": "Point",
        "coordinates": [
          176.039197,
          -37.641643
        ]
      },
      "properties": {
        "id": "omokoroa_tourist_park",
        "name": "Omokoroa Tourist Park and Thermal Hot Pools",
        "region": "Bay of Plenty",
        "island": "North",
        "type": "guests_only",
        "status": "open",
        "address": "165 Omokoroa Road, Tauranga",
        "geocode_status": "ok",
        "coord_source": "google_geocode",
        "rating": 8.54,
        "votes": 13,
        "sources": [
          "nzhotpools"
        ]
      }
    },
    {
      "type": "Feature",
      "geometry": {
        "type": "Point",
        "coordinates": [
          176.165427,
          -37.686965
        ]
      },
      "properties": {
        "id": "tauranga_accommodation",
        "name": "Tauranga Accommodation With Thermal Pools",
        "region": "Bay of Plenty",
        "island": "North",
        "type": "guests_only",
        "status": "open",
        "address": "Tauranga City",
        "geocode_status": "ok",
        "coord_source": "google_geocode",
        "rating": 6.0,
        "votes": 3,
        "sources": [
          "nzhotpools"
        ]
      }
    },
    {
      "type": "Feature",
      "geometry": {
        "type": "Point",
        "coordinates": [
          177.795737,
          -38.949156
        ]
      },
      "properties": {
        "id": "morere_hot_springs",
        "name": "Morere Hot Springs (Nga Hua o Morere)",
        "region": "Gisborne",
        "island": "North",
        "type": "commercial",
        "status": "open",
        "address": "State Highway 2, Morere",
        "geocode_status": "ok",
        "coord_source": "google_geocode",
        "rating": 7.45,
        "votes": 20,
        "temperature": "30-40C",
        "price": "$10 adult, $5 child",
        "description": "Est. 1895. 364-hectare DOC reserve of native lowland forest.",
        "sources": [
          "nzhotpools",
          "hotspringsguides",
          "newswire",
          "wikipedia"
        ]
      }
    },
    {
      "type": "Feature",
      "geometry": {
        "type": "Point",
        "coordinates": [
          178.291919,
          -38.044841
        ]
      },
      "properties": {
        "id": "te_puia_springs_hotel",
        "name": "Te Puia Springs Hotel",
        "region": "Gisborne",
        "island": "North",
        "type": "commercial",
        "status": "open",
        "address": "State Highway 35, Te Puia Springs",
        "geocode_status": "ok",
        "coord_source": "google_geocode",
        "rating": 7.0,
        "votes": 31,
        "description": "Heritage hotel on SH35 near Tokomaru Bay, est. 1918. Natural mineral hot pool free for guests.",
        "sources": [
          "nzhotpools",
          "hotspringsguides",
          "wikipedia"
        ]
      }
    },
    {
      "type": "Feature",
      "geometry": {
        "type": "Point",
        "coordinates": [
          176.302947,
          -38.327229
        ]
      },
      "properties": {
        "id": "waikite_valley_thermal_pools",
        "name": "Waikite Valley Thermal Pools",
        "region": "Rotorua",
        "island": "North",
        "type": "commercial",
        "status": "open",
        "address": "Waikite Valley, between Rotorua and Taupo",
        "geocode_status": "ok",
        "coord_source": "google_geocode",
        "rating": 8.51,
        "votes": 71,
        "temperature": "35-40C",
        "price": "$22 adult, $10 child",
        "description": "Est. 1972. Fed by Te Manaroa Spring - largest single boiling spring in NZ by volume (30L/sec at 100C).",
        "sources": [
          "nzhotpools",
          "hotspringsguides",
          "newswire"
        ]
      }
    },
    {
      "type": "Feature",
      "geometry": {
        "type": "Point",
        "coordinates": [
          176.258221,
          -38.137895
        ]
      },
      "properties": {
        "id": "polynesian_spa",
        "name": "Polynesian Spa",
        "region": "Rotorua",
        "island": "North",
        "type": "commercial",
        "status": "open",
        "address": "Hinemoa Street, Rotorua",
        "geocode_status": "ok",
        "coord_source": "google_geocode",
        "rating": 6.06,
        "votes": 32,
        "temperature": "36-42C",
        "price": "$31-$95 adult depending on tier",
        "description": "Est. 1972. Priest Spring used since 1860s. 28 mineral pools. Sulphate-chloride and bicarbonate mineral content.",
        "sources": [
          "nzhotpools",
          "hotspringsguides",
          "newswire",
          "wikipedia"
        ]
      }
    },
    {
      "type": "Feature",
      "geometry": {
        "type": "Point",
        "coordinates": [
          176.25558,
          -38.131827
        ]
      },
      "properties": {
        "id": "wai_ariki_hot_springs",
        "name": "Wai Ariki Hot Springs & Spa",
        "region": "Rotorua",
        "island": "North",
        "type": "commercial",
        "status": "open",
        "address": "Lake Rotorua, Rotorua",
        "geocode_status": "ok",
        "coord_source": "google_geocode",
        "description": "Paid adult-only luxury Maori cultural spa on Lake Rotorua. Geothermal mineral pools, mud therapy, saunas.",
        "sources": [
          "hotspringsguides"
        ]
      }
    },
    {
      "type": "Feature",
      "geometry": {
        "type": "Point",
        "coordinates": [
          176.253102,
          -38.175956
        ]
      },
      "properties": {
        "id": "secret_spot_hot_tubs",
        "name": "Secret Spot Hot Tubs",
        "region": "Rotorua",
        "island": "North",
        "type": "commercial",
        "status": "open",
        "address": "Puarenga Stream, Rotorua",
        "geocode_status": "ok",
        "coord_source": "google_geocode",
        "description": "Private cedar hot tubs in native forest beside Puarenga Stream. Cafe, bar, saunas, cold plunge tubs.",
        "sources": [
          "hotspringsguides"
        ]
      }
    },
    {
      "type": "Feature",
      "geometry": {
        "type": "Point",
        "coordinates": [
          176.362091,
          -38.064706
        ]
      },
      "properties": {
        "id": "hells_gate",
        "name": "Hell's Gate - WaiOra Spa and Wellness Centre",
        "region": "Rotorua",
        "island": "North",
        "type": "commercial",
        "status": "open",
        "address": "State Highway 30, Tikitere, 10km north of Rotorua",
        "geocode_status": "ok",
        "coord_source": "google_geocode",
        "rating": 6.22,
        "votes": 9,
        "temperature": "35-39C",
        "price": "$45 geothermal walk + pool combo",
        "description": "Est. 1990. Owned by Ngati Rangiteaorere. Kakahi Falls - southern hemisphere's largest hot waterfall. Mud baths.",
        "sources": [
          "nzhotpools",
          "hotspringsguides",
          "newswire"
        ]
      }
    },
    {
      "type": "Feature",
      "geometry": {
        "type": "Point",
        "coordinates": [
          176.368984,
          -38.358256
        ]
      },
      "properties": {
        "id": "wai_o_tapu",
        "name": "Wai-O-Tapu Thermal Wonderland",
        "region": "Rotorua",
        "island": "North",
        "type": "geothermal_park",
        "status": "open",
        "address": "Waiotapu, 27km south of Rotorua",
        "geocode_status": "ok",
        "coord_source": "google_geocode",
        "price": "$35 adult, $11 child",
        "description": "Visual geothermal park. Champagne Pool, Devil's Bath, Lady Knox Geyser. No swimming - too acidic and hot.",
        "sources": [
          "newswire"
        ]
      }
    },
    {
      "type": "Feature",
      "geometry": {
        "type": "Point",
        "coordinates": [
          176.364233,
          -38.35581
        ]
      },
      "properties": {
        "id": "the_bridge_waiotapu",
        "name": "The Bridge (Secret Spot, HotnCold), Waiotapu Stream",
        "region": "Rotorua",
        "island": "North",
        "type": "in_nature",
        "status": "open",
        "address": "Waiotapu Stream, 50km south of Rotorua",
        "geocode_status": "ok",
        "coord_source": "google_geocode",
        "rating": 7.6,
        "votes": 50,
        "sources": [
          "nzhotpools"
        ]
      }
    },
    {
      "type": "Feature",
      "geometry": {
        "type": "Point",
        "coordinates": [
          176.385949,
          -38.334587
        ]
      },
      "properties": {
        "id": "kerosene_creek",
        "name": "Kerosene Creek",
        "region": "Rotorua",
        "island": "North",
        "type": "in_nature",
        "status": "open",
        "address": "35km south of Rotorua on way to Taupo",
        "geocode_status": "ok",
        "coord_source": "hotspringsguides (corrected from google)",
        "rating": 8.04,
        "votes": 114,
        "temperature": "35-40C",
        "price": "Free",
        "description": "Free natural geothermal stream and waterfall pool. Bush-fringed. Don't put head under (amoebic meningitis risk).",
        "sources": [
          "nzhotpools",
          "hotspringsguides",
          "newswire"
        ],
        "geocode_note": "Google geocode returned approximate location; ref_coords used instead"
      }
    },
    {
      "type": "Feature",
      "geometry": {
        "type": "Point",
        "coordinates": [
          176.368001,
          -38.047829
        ]
      },
      "properties": {
        "id": "tumoana_point",
        "name": "Tumoana Point Hot Springs",
        "region": "Rotorua",
        "island": "North",
        "type": "in_nature",
        "status": "open",
        "address": "Southern shore of Lake Rotoiti",
        "geocode_status": "ok",
        "coord_source": "google_geocode",
        "rating": 4.0,
        "votes": 1,
        "sources": [
          "nzhotpools"
        ]
      }
    },
    {
      "type": "Feature",
      "geometry": {
        "type": "Point",
        "coordinates": [
          176.363693,
          -38.339508
        ]
      },
      "properties": {
        "id": "waterfall_spout_bath",
        "name": "Waterfall Spout Bath, Waiotapu",
        "region": "Rotorua",
        "island": "North",
        "type": "in_nature",
        "status": "open",
        "address": "Near Lady Knox Geyser, Waiotapu",
        "geocode_status": "ok",
        "coord_source": "google_geocode",
        "rating": 6.43,
        "votes": 23,
        "sources": [
          "nzhotpools"
        ]
      }
    },
    {
      "type": "Feature",
      "geometry": {
        "type": "Point",
        "coordinates": [
          176.237767,
          -38.144599
        ]
      },
      "properties": {
        "id": "wairua_stream",
        "name": "Wairua Stream",
        "region": "Rotorua",
        "island": "North",
        "type": "in_nature",
        "status": "open",
        "address": "Lake Tarawera",
        "geocode_status": "ok",
        "coord_source": "google_geocode",
        "rating": 8.0,
        "votes": 5,
        "sources": [
          "nzhotpools"
        ]
      }
    },
    {
      "type": "Feature",
      "geometry": {
        "type": "Point",
        "coordinates": [
          176.374103,
          -38.322271
        ]
      },
      "properties": {
        "id": "lake_rotowhero",
        "name": "Lake Rotowhero",
        "region": "Rotorua",
        "island": "North",
        "type": "in_nature",
        "status": "open",
        "address": "Lake Rotowhero, near Waiotapu",
        "geocode_status": "ok",
        "coord_source": "google_geocode",
        "rating": 5.0,
        "votes": 6,
        "temperature": "~30C",
        "price": "Free",
        "description": "Small geothermal lake heated by submerged hot springs. Sulphurous yellow-green tint.",
        "sources": [
          "nzhotpools",
          "newswire"
        ]
      }
    },
    {
      "type": "Feature",
      "geometry": {
        "type": "Point",
        "coordinates": [
          176.245752,
          -38.13384
        ]
      },
      "properties": {
        "id": "kuirau_park_footbaths",
        "name": "Kuirau Park Footbaths",
        "region": "Rotorua",
        "island": "North",
        "type": "in_nature",
        "status": "open",
        "address": "Kuirau Park, Rotorua",
        "geocode_status": "ok",
        "coord_source": "google_geocode",
        "rating": 7.43,
        "votes": 7,
        "price": "Free",
        "description": "Free public thermal foot baths in Kuirau Park, central Rotorua.",
        "sources": [
          "nzhotpools"
        ]
      }
    },
    {
      "type": "Feature",
      "geometry": {
        "type": "Point",
        "coordinates": [
          176.237767,
          -38.144599
        ]
      },
      "properties": {
        "id": "maungataniwha_hot_springs",
        "name": "Maungataniwha Hot Springs",
        "region": "Rotorua",
        "island": "North",
        "type": "in_nature",
        "status": "open",
        "address": "Western part of Te Urewera National Park",
        "geocode_status": "ok",
        "coord_source": "google_geocode",
        "rating": 3.6,
        "votes": 5,
        "sources": [
          "nzhotpools"
        ]
      }
    },
    {
      "type": "Feature",
      "geometry": {
        "type": "Point",
        "coordinates": [
          176.437393,
          -38.243902
        ]
      },
      "properties": {
        "id": "te_rata_bay",
        "name": "Te Rata Bay (Hot Water Beach, Lake Tarawera)",
        "region": "Rotorua",
        "island": "North",
        "type": "in_nature",
        "status": "open",
        "address": "Lake Tarawera",
        "geocode_status": "ok",
        "coord_source": "google_geocode",
        "rating": 6.91,
        "votes": 11,
        "temperature": "32-40C",
        "price": "Free (boat access required)",
        "description": "Geothermal seeps from post-1886 Tarawera eruption. Boat access only. Water taxi from Tarawera Landing.",
        "sources": [
          "nzhotpools",
          "newswire"
        ]
      }
    },
    {
      "type": "Feature",
      "geometry": {
        "type": "Point",
        "coordinates": [
          176.257696,
          -38.136347
        ]
      },
      "properties": {
        "id": "blue_baths",
        "name": "Blue Baths",
        "region": "Rotorua",
        "island": "North",
        "type": "commercial",
        "status": "closed",
        "address": "Government Gardens, Rotorua",
        "geocode_status": "ok",
        "coord_source": "google_geocode",
        "rating": 8.13,
        "votes": 8,
        "sources": [
          "nzhotpools"
        ]
      }
    },
    {
      "type": "Feature",
      "geometry": {
        "type": "Point",
        "coordinates": [
          176.549284,
          -38.037842
        ]
      },
      "properties": {
        "id": "waitangi_soda_springs",
        "name": "Waitangi Soda Springs",
        "region": "Rotorua",
        "island": "North",
        "type": "commercial",
        "status": "open",
        "address": "Waitangi River, Lake Rotoma",
        "geocode_status": "ok",
        "coord_source": "google_geocode",
        "rating": 5.53,
        "votes": 81,
        "sources": [
          "nzhotpools"
        ]
      }
    },
    {
      "type": "Feature",
      "geometry": {
        "type": "Point",
        "coordinates": [
          176.545911,
          -38.042238
        ]
      },
      "properties": {
        "id": "rotoma_holiday_park",
        "name": "Rotoma Holiday Park",
        "region": "Rotorua",
        "island": "North",
        "type": "commercial",
        "status": "open",
        "address": "Manawahe Road, Rotoma",
        "geocode_status": "ok",
        "coord_source": "google_geocode",
        "rating": 5.8,
        "votes": 5,
        "sources": [
          "nzhotpools"
        ]
      }
    },
    {
      "type": "Feature",
      "geometry": {
        "type": "Point",
        "coordinates": [
          176.253771,
          -38.132665
        ]
      },
      "properties": {
        "id": "maurie_kjar_pool",
        "name": "Maurie Kjar Memorial Swimming Pool Complex",
        "region": "Rotorua",
        "island": "North",
        "type": "commercial",
        "status": "open",
        "address": "Kawerau Town Centre",
        "geocode_status": "ok",
        "coord_source": "google_geocode",
        "rating": 9.4,
        "votes": 5,
        "sources": [
          "nzhotpools",
          "wikipedia"
        ]
      }
    },
    {
      "type": "Feature",
      "geometry": {
        "type": "Point",
        "coordinates": [
          176.237767,
          -38.144599
        ]
      },
      "properties": {
        "id": "awakeri_hot_springs",
        "name": "Awakeri Hot Springs",
        "region": "Rotorua",
        "island": "North",
        "type": "commercial",
        "status": "open",
        "address": "SH 30, 16km from Whakatane to Rotorua",
        "geocode_status": "ok",
        "coord_source": "google_geocode",
        "rating": 7.47,
        "votes": 15,
        "sources": [
          "nzhotpools",
          "wikipedia"
        ]
      }
    },
    {
      "type": "Feature",
      "geometry": {
        "type": "Point",
        "coordinates": [
          176.382262,
          -38.038826
        ]
      },
      "properties": {
        "id": "manupirua_thermal_springs",
        "name": "Lake Rotoiti Hot Pools (Manupirua Thermal Springs)",
        "region": "Rotorua",
        "island": "North",
        "type": "commercial",
        "status": "open",
        "address": "Southern shore of Lake Rotoiti",
        "geocode_status": "ok",
        "coord_source": "google_geocode",
        "rating": 8.79,
        "votes": 39,
        "temperature": "36-42C",
        "price": "Boat fare; pools free",
        "description": "Accessible only by boat from Okere Falls. Used by Te Arawa for centuries.",
        "sources": [
          "nzhotpools",
          "newswire"
        ]
      }
    },
    {
      "type": "Feature",
      "geometry": {
        "type": "Point",
        "coordinates": [
          176.237767,
          -38.144599
        ]
      },
      "properties": {
        "id": "rotorua_accommodation",
        "name": "Rotorua Accommodation with Thermal Pools",
        "region": "Rotorua",
        "island": "North",
        "type": "guests_only",
        "status": "open",
        "address": "Rotorua City",
        "geocode_status": "ok",
        "coord_source": "google_geocode",
        "rating": 8.29,
        "votes": 7,
        "sources": [
          "nzhotpools"
        ]
      }
    },
    {
      "type": "Feature",
      "geometry": {
        "type": "Point",
        "coordinates": [
          176.288065,
          -38.085786
        ]
      },
      "properties": {
        "id": "hinemoas_pool",
        "name": "Hinemoa's Pool (Wai-Kimihia)",
        "region": "Rotorua",
        "island": "North",
        "type": "private_property",
        "status": "open",
        "address": "Mokoia Island, Lake Rotorua",
        "geocode_status": "ok",
        "coord_source": "google_geocode",
        "rating": 4.0,
        "votes": 2,
        "temperature": "~38C",
        "price": "Free (Te Arawa-led tour only)",
        "description": "Culturally significant site. Hinemoa swam across Lake Rotorua to find Tutanekai. Visits by booked tour with Te Arawa kaitiaki.",
        "sources": [
          "nzhotpools",
          "newswire",
          "wikipedia"
        ]
      }
    },
    {
      "type": "Feature",
      "geometry": {
        "type": "Point",
        "coordinates": [
          174.053869,
          -39.061746
        ]
      },
      "properties": {
        "id": "taranaki_mineral_pools",
        "name": "Taranaki Mineral Pools",
        "region": "Taranaki",
        "island": "North",
        "type": "commercial",
        "status": "open",
        "address": "8 Bonithon Avenue, New Plymouth",
        "geocode_status": "ok",
        "coord_source": "google_geocode",
        "rating": 7.24,
        "votes": 37,
        "sources": [
          "nzhotpools",
          "wikipedia"
        ]
      }
    },
    {
      "type": "Feature",
      "geometry": {
        "type": "Point",
        "coordinates": [
          175.765842,
          -38.963618
        ]
      },
      "properties": {
        "id": "oasis_motel_tokaanu",
        "name": "Oasis Motel & Holiday Park",
        "region": "Taupo",
        "island": "North",
        "type": "commercial",
        "status": "open",
        "address": "State Highway 41, Tokaanu",
        "geocode_status": "ok",
        "coord_source": "google_geocode",
        "rating": 3.67,
        "votes": 3,
        "sources": [
          "nzhotpools"
        ]
      }
    },
    {
      "type": "Feature",
      "geometry": {
        "type": "Point",
        "coordinates": [
          176.093676,
          -38.679147
        ]
      },
      "properties": {
        "id": "ac_baths",
        "name": "A.C. Baths",
        "region": "Taupo",
        "island": "North",
        "type": "commercial",
        "status": "open",
        "address": "Cnr Spa Road and A.C. Baths Avenue, Taupo",
        "geocode_status": "ok",
        "coord_source": "google_geocode",
        "rating": 7.4,
        "votes": 15,
        "sources": [
          "nzhotpools"
        ]
      }
    },
    {
      "type": "Feature",
      "geometry": {
        "type": "Point",
        "coordinates": [
          175.764406,
          -38.967206
        ]
      },
      "properties": {
        "id": "tokaanu_thermal_pools",
        "name": "Tokaanu Thermal Pools",
        "region": "Taupo",
        "island": "North",
        "type": "commercial",
        "status": "open",
        "address": "Mangaroa Street, Tokaanu, Turangi",
        "geocode_status": "ok",
        "coord_source": "google_geocode",
        "rating": 7.23,
        "votes": 75,
        "description": "Paid geothermal pools on southern shore of Lake Taupo. Private mineral pools, public pool, free thermal bushwalk.",
        "sources": [
          "nzhotpools",
          "hotspringsguides",
          "wikipedia"
        ]
      }
    },
    {
      "type": "Feature",
      "geometry": {
        "type": "Point",
        "coordinates": [
          176.070447,
          -38.684286
        ]
      },
      "properties": {
        "id": "butchers_pool",
        "name": "Butchers Pool",
        "region": "Taupo",
        "island": "North",
        "type": "in_nature",
        "status": "open",
        "address": "Northeast of Golden Springs, near Reporoa",
        "geocode_status": "ok",
        "coord_source": "google_geocode",
        "rating": 6.51,
        "votes": 41,
        "sources": [
          "nzhotpools"
        ]
      }
    },
    {
      "type": "Feature",
      "geometry": {
        "type": "Point",
        "coordinates": [
          176.070447,
          -38.684286
        ]
      },
      "properties": {
        "id": "the_tubs",
        "name": "The Tubs",
        "region": "Taupo",
        "island": "North",
        "type": "in_nature",
        "status": "open",
        "address": "Eastern side of Lake Ohakuri",
        "geocode_status": "ok",
        "coord_source": "google_geocode",
        "rating": 1.0,
        "votes": 1,
        "sources": [
          "nzhotpools"
        ]
      }
    },
    {
      "type": "Feature",
      "geometry": {
        "type": "Point",
        "coordinates": [
          176.070447,
          -38.684286
        ]
      },
      "properties": {
        "id": "akatarewa_stream",
        "name": "Akatarewa Stream",
        "region": "Taupo",
        "island": "North",
        "type": "in_nature",
        "status": "open",
        "address": "Eastern side of Lake Ohakuri",
        "geocode_status": "ok",
        "coord_source": "google_geocode",
        "rating": 8.5,
        "votes": 4,
        "sources": [
          "nzhotpools"
        ]
      }
    },
    {
      "type": "Feature",
      "geometry": {
        "type": "Point",
        "coordinates": [
          176.070447,
          -38.684286
        ]
      },
      "properties": {
        "id": "paradise",
        "name": "Paradise",
        "region": "Taupo",
        "island": "North",
        "type": "in_nature",
        "status": "open",
        "address": "Eastern side of Lake Ohakuri",
        "geocode_status": "ok",
        "coord_source": "google_geocode",
        "rating": 4.29,
        "votes": 14,
        "sources": [
          "nzhotpools"
        ]
      }
    },
    {
      "type": "Feature",
      "geometry": {
        "type": "Point",
        "coordinates": [
          176.042763,
          -38.722396
        ]
      },
      "properties": {
        "id": "tapuaeharuru_bay_springs",
        "name": "Tapuaeharuru Bay Springs",
        "region": "Taupo",
        "island": "North",
        "type": "in_nature",
        "status": "open",
        "address": "Lake Taupo",
        "geocode_status": "ok",
        "coord_source": "google_geocode",
        "rating": 2.33,
        "votes": 3,
        "sources": [
          "nzhotpools"
        ]
      }
    },
    {
      "type": "Feature",
      "geometry": {
        "type": "Point",
        "coordinates": [
          176.085485,
          -38.66941
        ]
      },
      "properties": {
        "id": "otumuheke_stream",
        "name": "Otumuheke Stream, Spa Park",
        "region": "Taupo",
        "island": "North",
        "type": "in_nature",
        "status": "open",
        "address": "Waikato River, Taupo",
        "geocode_status": "ok",
        "coord_source": "google_geocode",
        "rating": 7.2,
        "votes": 20,
        "temperature": "35-40C",
        "price": "Free",
        "description": "Hot creek meets cold Waikato River. Natural rock pools and waterfall. Changing rooms and cafe on site.",
        "sources": [
          "nzhotpools",
          "hotspringsguides",
          "newswire",
          "wikipedia"
        ]
      }
    },
    {
      "type": "Feature",
      "geometry": {
        "type": "Point",
        "coordinates": [
          176.070447,
          -38.684286
        ]
      },
      "properties": {
        "id": "tarawera_hot_springs",
        "name": "Tarawera Hot Springs",
        "region": "Taupo",
        "island": "North",
        "type": "in_nature",
        "status": "closed",
        "address": "Taupo-Napier Highway",
        "geocode_status": "ok",
        "coord_source": "google_geocode",
        "rating": 6.22,
        "votes": 27,
        "sources": [
          "nzhotpools"
        ]
      }
    },
    {
      "type": "Feature",
      "geometry": {
        "type": "Point",
        "coordinates": [
          176.116531,
          -38.678976
        ]
      },
      "properties": {
        "id": "taupo_debretts",
        "name": "Taupo DeBretts Hot Springs",
        "region": "Taupo",
        "island": "North",
        "type": "commercial",
        "status": "open",
        "address": "State Highway 5, Taupo",
        "geocode_status": "ok",
        "coord_source": "google_geocode",
        "rating": 8.0,
        "votes": 22,
        "temperature": "32-40C",
        "price": "$25 adult, $14 child",
        "description": "Est. 1881. Thermal pools, hydroslides, holiday park. Easy walk to Taupo centre.",
        "sources": [
          "nzhotpools",
          "hotspringsguides",
          "newswire",
          "wikipedia"
        ]
      }
    },
    {
      "type": "Feature",
      "geometry": {
        "type": "Point",
        "coordinates": [
          176.089423,
          -38.625102
        ]
      },
      "properties": {
        "id": "wairakei_terraces",
        "name": "Wairakei Terraces",
        "region": "Taupo",
        "island": "North",
        "type": "commercial",
        "status": "open",
        "address": "Wairakei, 8mins north of Taupo",
        "geocode_status": "ok",
        "coord_source": "google_geocode",
        "rating": 9.57,
        "votes": 7,
        "description": "Paid adult-only geothermal spa. Three mineral pools below man-made silica terraces. Ages 14 and over.",
        "sources": [
          "nzhotpools",
          "hotspringsguides",
          "wikipedia"
        ]
      }
    },
    {
      "type": "Feature",
      "geometry": {
        "type": "Point",
        "coordinates": [
          176.307901,
          -38.469603
        ]
      },
      "properties": {
        "id": "golden_springs_motel",
        "name": "Golden Springs Motel and Holiday Park",
        "region": "Taupo",
        "island": "North",
        "type": "guests_only",
        "status": "open",
        "address": "State Highway 5, Golden Springs",
        "geocode_status": "ok",
        "coord_source": "google_geocode",
        "rating": 2.5,
        "votes": 10,
        "sources": [
          "nzhotpools"
        ]
      }
    },
    {
      "type": "Feature",
      "geometry": {
        "type": "Point",
        "coordinates": [
          176.097338,
          -38.703754
        ]
      },
      "properties": {
        "id": "taupo_accommodation",
        "name": "Taupo Accommodation With Thermal Pools",
        "region": "Taupo",
        "island": "North",
        "type": "guests_only",
        "status": "open",
        "address": "Taupo City",
        "geocode_status": "ok",
        "coord_source": "google_geocode",
        "rating": 7.0,
        "votes": 4,
        "sources": [
          "nzhotpools"
        ]
      }
    },
    {
      "type": "Feature",
      "geometry": {
        "type": "Point",
        "coordinates": [
          176.070447,
          -38.684286
        ]
      },
      "properties": {
        "id": "tokaanu_accommodation",
        "name": "Tokaanu Accommodation With Thermal Pools",
        "region": "Taupo",
        "island": "North",
        "type": "guests_only",
        "status": "open",
        "address": "Tokaanu Township, Taupo",
        "geocode_status": "ok",
        "coord_source": "google_geocode",
        "rating": 6.17,
        "votes": 6,
        "sources": [
          "nzhotpools"
        ]
      }
    },
    {
      "type": "Feature",
      "geometry": {
        "type": "Point",
        "coordinates": [
          175.765357,
          -38.962749
        ]
      },
      "properties": {
        "id": "rock_n_river",
        "name": "Rock 'N' River Rafting",
        "region": "Taupo",
        "island": "North",
        "type": "private_property",
        "status": "open",
        "address": "203 Tuanga Street, Tokaanu",
        "geocode_status": "ok",
        "coord_source": "google_geocode",
        "sources": [
          "nzhotpools"
        ]
      }
    },
    {
      "type": "Feature",
      "geometry": {
        "type": "Point",
        "coordinates": [
          176.307901,
          -38.469603
        ]
      },
      "properties": {
        "id": "golden_springs",
        "name": "Golden Springs",
        "region": "Taupo",
        "island": "North",
        "type": "private_property",
        "status": "open",
        "address": "State Highway 5, Golden Springs",
        "geocode_status": "ok",
        "coord_source": "google_geocode",
        "rating": 4.0,
        "votes": 7,
        "sources": [
          "nzhotpools"
        ]
      }
    },
    {
      "type": "Feature",
      "geometry": {
        "type": "Point",
        "coordinates": [
          176.070447,
          -38.684286
        ]
      },
      "properties": {
        "id": "honeymoon_pool",
        "name": "The Honeymoon Pool (Te Kiri O Hine Kai Stream)",
        "region": "Taupo",
        "island": "North",
        "type": "private_property",
        "status": "open",
        "address": "Near Wairakei Power Station, Taupo",
        "geocode_status": "ok",
        "coord_source": "google_geocode",
        "rating": 3.67,
        "votes": 6,
        "sources": [
          "nzhotpools"
        ]
      }
    },
    {
      "type": "Feature",
      "geometry": {
        "type": "Point",
        "coordinates": [
          176.071439,
          -38.644302
        ]
      },
      "properties": {
        "id": "craters_of_the_moon",
        "name": "Craters of the Moon geothermal area",
        "region": "Taupo",
        "island": "North",
        "type": "geothermal_park",
        "status": "open",
        "address": "Karapiti Road, Wairakei, near Taupo",
        "geocode_status": "ok",
        "coord_source": "google_geocode",
        "description": "Geothermal walkway with steaming craters and mud pools. No bathing.",
        "sources": [
          "wikipedia"
        ]
      }
    },
    {
      "type": "Feature",
      "geometry": {
        "type": "Point",
        "coordinates": [
          176.580447,
          -39.60166
        ]
      },
      "properties": {
        "id": "ohane_stream",
        "name": "Ohane Stream Hot Springs",
        "region": "Hawkes Bay",
        "island": "North",
        "type": "in_nature",
        "status": "open",
        "address": "Taupo-Napier Highway",
        "geocode_status": "ok",
        "coord_source": "google_geocode",
        "rating": 5.0,
        "votes": 4,
        "sources": [
          "nzhotpools"
        ]
      }
    },
    {
      "type": "Feature",
      "geometry": {
        "type": "Point",
        "coordinates": [
          176.419308,
          -39.178096
        ]
      },
      "properties": {
        "id": "mangatutu_hot_springs",
        "name": "Mangatutu Hot Springs",
        "region": "Hawkes Bay",
        "island": "North",
        "type": "in_nature",
        "status": "open",
        "address": "Kaweka Forest Park, Northwest of Napier",
        "geocode_status": "ok",
        "coord_source": "google_geocode",
        "rating": 7.33,
        "votes": 27,
        "description": "Two free geothermal tubs beside the Mohaka River in Kaweka Forest Park. About 90 minutes from Napier on rough gravel. DOC campsite adjacent.",
        "sources": [
          "nzhotpools",
          "hotspringsguides",
          "wikipedia"
        ]
      }
    },
    {
      "type": "Feature",
      "geometry": {
        "type": "Point",
        "coordinates": [
          176.419308,
          -39.178096
        ]
      },
      "properties": {
        "id": "mangatainoka_hot_springs",
        "name": "Mangatainoka Hot Springs",
        "region": "Hawkes Bay",
        "island": "North",
        "type": "in_nature",
        "status": "open",
        "address": "Te Whaiti / Ureweras, up the Mohaka River",
        "geocode_status": "ok",
        "coord_source": "google_geocode",
        "rating": 8.22,
        "votes": 9,
        "temperature": "36-40C",
        "price": "Free; 90-min walk in",
        "description": "Three renovated geothermal pools in Kaweka Forest Park, 3-4 hour intermediate tramp. DOC campsite adjacent.",
        "sources": [
          "nzhotpools",
          "hotspringsguides",
          "newswire",
          "wikipedia"
        ]
      }
    },
    {
      "type": "Feature",
      "geometry": {
        "type": "Point",
        "coordinates": [
          176.580447,
          -39.60166
        ]
      },
      "properties": {
        "id": "waipiropiro_hot_spring",
        "name": "Waipiropiro Hot Spring",
        "region": "Hawkes Bay",
        "island": "North",
        "type": "private_property",
        "status": "open",
        "address": "Between Taihape and Napier, Taihape Road",
        "geocode_status": "ok",
        "coord_source": "google_geocode",
        "rating": 3.0,
        "votes": 2,
        "sources": [
          "nzhotpools"
        ]
      }
    },
    {
      "type": "Feature",
      "geometry": {
        "type": "Point",
        "coordinates": [
          170.184843,
          -43.384428
        ]
      },
      "properties": {
        "id": "waiho_hot_tubs",
        "name": "Waiho Hot Tubs",
        "region": "West Coast",
        "island": "South",
        "type": "commercial",
        "status": "open",
        "address": "64B Cron Street, Franz Josef Glacier",
        "geocode_status": "ok",
        "coord_source": "google_geocode",
        "sources": [
          "nzhotpools"
        ]
      }
    },
    {
      "type": "Feature",
      "geometry": {
        "type": "Point",
        "coordinates": [
          170.184562,
          -43.384156
        ]
      },
      "properties": {
        "id": "glacier_hot_pools",
        "name": "Glacier Hot Pools",
        "region": "West Coast",
        "island": "South",
        "type": "commercial",
        "status": "open",
        "address": "Cron Street, Franz Josef Glacier",
        "geocode_status": "ok",
        "coord_source": "google_geocode",
        "rating": 7.0,
        "votes": 3,
        "sources": [
          "nzhotpools"
        ]
      }
    },
    {
      "type": "Feature",
      "geometry": {
        "type": "Point",
        "coordinates": [
          171.184375,
          -43.026206
        ]
      },
      "properties": {
        "id": "mungo_river",
        "name": "Mungo River Hot Springs",
        "region": "West Coast",
        "island": "South",
        "type": "in_nature",
        "status": "open",
        "address": "In the heart of the Southern Alps",
        "geocode_status": "ok",
        "coord_source": "google_geocode",
        "rating": 1.0,
        "votes": 1,
        "sources": [
          "nzhotpools"
        ]
      }
    },
    {
      "type": "Feature",
      "geometry": {
        "type": "Point",
        "coordinates": [
          170.550717,
          -43.357056
        ]
      },
      "properties": {
        "id": "perth_river",
        "name": "Perth River Hot Springs",
        "region": "West Coast",
        "island": "South",
        "type": "in_nature",
        "status": "open",
        "address": "Perth River, above Scone Hut",
        "geocode_status": "ok",
        "coord_source": "google_geocode",
        "rating": 3.0,
        "votes": 4,
        "sources": [
          "nzhotpools"
        ]
      }
    },
    {
      "type": "Feature",
      "geometry": {
        "type": "Point",
        "coordinates": [
          171.033444,
          -42.832703
        ]
      },
      "properties": {
        "id": "kokatahi_hot_pool",
        "name": "Kokatahi Hot Pool",
        "region": "West Coast",
        "island": "South",
        "type": "in_nature",
        "status": "open",
        "address": "Inland from Hokitika",
        "geocode_status": "ok",
        "coord_source": "google_geocode",
        "rating": 3.0,
        "votes": 1,
        "sources": [
          "nzhotpools"
        ]
      }
    },
    {
      "type": "Feature",
      "geometry": {
        "type": "Point",
        "coordinates": [
          171.59871,
          -42.807202
        ]
      },
      "properties": {
        "id": "deception_river",
        "name": "Deception River Hot Springs",
        "region": "West Coast",
        "island": "South",
        "type": "in_nature",
        "status": "open",
        "address": "Deception River, Arthur's Pass National Park",
        "geocode_status": "ok",
        "coord_source": "google_geocode",
        "rating": 3.4,
        "votes": 5,
        "sources": [
          "nzhotpools"
        ]
      }
    },
    {
      "type": "Feature",
      "geometry": {
        "type": "Point",
        "coordinates": [
          171.695256,
          -42.820237
        ]
      },
      "properties": {
        "id": "otehake_river",
        "name": "Otehake River Hot Springs",
        "region": "West Coast",
        "island": "South",
        "type": "in_nature",
        "status": "open",
        "address": "Otehake Wilderness Area, Arthur's Pass",
        "geocode_status": "ok",
        "coord_source": "google_geocode",
        "rating": 6.88,
        "votes": 17,
        "sources": [
          "nzhotpools",
          "wikipedia"
        ]
      }
    },
    {
      "type": "Feature",
      "geometry": {
        "type": "Point",
        "coordinates": [
          171.438866,
          -42.836976
        ]
      },
      "properties": {
        "id": "taipo_river",
        "name": "Taipo River Hot Springs",
        "region": "West Coast",
        "island": "South",
        "type": "in_nature",
        "status": "open",
        "address": "Taipo River, Arthur's Pass",
        "geocode_status": "ok",
        "coord_source": "google_geocode",
        "rating": 6.4,
        "votes": 5,
        "sources": [
          "nzhotpools"
        ]
      }
    },
    {
      "type": "Feature",
      "geometry": {
        "type": "Point",
        "coordinates": [
          170.628922,
          -43.169398
        ]
      },
      "properties": {
        "id": "amethyst_hot_springs",
        "name": "Amethyst Hot Springs, Lower Wanganui River",
        "region": "West Coast",
        "island": "South",
        "type": "in_nature",
        "status": "open",
        "address": "Wanganui River, State Highway 6",
        "geocode_status": "ok",
        "coord_source": "google_geocode",
        "rating": 6.08,
        "votes": 24,
        "sources": [
          "nzhotpools"
        ]
      }
    },
    {
      "type": "Feature",
      "geometry": {
        "type": "Point",
        "coordinates": [
          170.579776,
          -43.133494
        ]
      },
      "properties": {
        "id": "hot_spring_flat",
        "name": "Hot Spring Flat, Mid Wanganui River",
        "region": "West Coast",
        "island": "South",
        "type": "in_nature",
        "status": "open",
        "address": "Wanganui River, State Highway 6",
        "geocode_status": "ok",
        "coord_source": "google_geocode",
        "rating": 5.67,
        "votes": 3,
        "sources": [
          "nzhotpools"
        ]
      }
    },
    {
      "type": "Feature",
      "geometry": {
        "type": "Point",
        "coordinates": [
          170.579776,
          -43.133494
        ]
      },
      "properties": {
        "id": "smythe_hut",
        "name": "Smythe Hut Hot Spring, Upper Wanganui River",
        "region": "West Coast",
        "island": "South",
        "type": "in_nature",
        "status": "open",
        "address": "Wanganui River",
        "geocode_status": "ok",
        "coord_source": "google_geocode",
        "rating": 4.75,
        "votes": 4,
        "sources": [
          "nzhotpools"
        ]
      }
    },
    {
      "type": "Feature",
      "geometry": {
        "type": "Point",
        "coordinates": [
          171.44864,
          -42.050466
        ]
      },
      "properties": {
        "id": "fox_river_warm_spring",
        "name": "Fox River Warm Spring",
        "region": "West Coast",
        "island": "South",
        "type": "in_nature",
        "status": "open",
        "address": "Fox Glacier",
        "geocode_status": "ok",
        "coord_source": "google_geocode",
        "rating": 2.5,
        "votes": 2,
        "sources": [
          "nzhotpools"
        ]
      }
    },
    {
      "type": "Feature",
      "geometry": {
        "type": "Point",
        "coordinates": [
          169.946758,
          -43.630688
        ]
      },
      "properties": {
        "id": "welcome_flat",
        "name": "Welcome Flat Hot Pools",
        "region": "West Coast",
        "island": "South",
        "type": "in_nature",
        "status": "open",
        "address": "Copland River, Westland National Park",
        "geocode_status": "ok",
        "coord_source": "hotspringsguides (corrected from google)",
        "rating": 7.96,
        "votes": 24,
        "temperature": "30-50C",
        "price": "DOC hut $25/night",
        "description": "7-hour Copland Track tramp. Calcium-bicarbonate-rich pools with white travertine terraces. DOC hut sleeps 31.",
        "sources": [
          "nzhotpools",
          "hotspringsguides",
          "newswire",
          "wikipedia"
        ],
        "geocode_note": "Google geocode returned approximate location; ref_coords used instead"
      }
    },
    {
      "type": "Feature",
      "geometry": {
        "type": "Point",
        "coordinates": [
          171.751339,
          -42.611314
        ]
      },
      "properties": {
        "id": "haupiri_river",
        "name": "Haupiri River Hot Spring",
        "region": "West Coast",
        "island": "South",
        "type": "in_nature",
        "status": "open",
        "address": "Haupiri River",
        "geocode_status": "ok",
        "coord_source": "google_geocode",
        "rating": 3.57,
        "votes": 7,
        "sources": [
          "nzhotpools"
        ]
      }
    },
    {
      "type": "Feature",
      "geometry": {
        "type": "Point",
        "coordinates": [
          171.339941,
          -42.691923
        ]
      },
      "properties": {
        "id": "wren_creek",
        "name": "Wren Creek Hot Springs, Cedar Flats",
        "region": "West Coast",
        "island": "South",
        "type": "in_nature",
        "status": "open",
        "address": "Toaroha River, 30km southeast of Hokitika",
        "geocode_status": "ok",
        "coord_source": "google_geocode",
        "rating": 6.29,
        "votes": 7,
        "sources": [
          "nzhotpools"
        ]
      }
    },
    {
      "type": "Feature",
      "geometry": {
        "type": "Point",
        "coordinates": [
          172.33333,
          -42.37902
        ]
      },
      "properties": {
        "id": "maruia_springs",
        "name": "Maruia Springs Thermal Resort",
        "region": "West Coast",
        "island": "South",
        "type": "commercial",
        "status": "open",
        "address": "State Highway 7, Lewis Pass",
        "geocode_status": "ok",
        "coord_source": "hotspringsguides (corrected from google)",
        "rating": 5.88,
        "votes": 40,
        "temperature": "36-42C",
        "price": "$45 adult, family rates available",
        "description": "Est. 1976. Alpine wellness retreat on Lewis Pass highway. Open-air alpine pools facing Maruia River. Private bathhouses, sauna, accommodation.",
        "sources": [
          "nzhotpools",
          "hotspringsguides",
          "newswire",
          "wikipedia"
        ],
        "geocode_note": "Google geocode returned approximate location; ref_coords used instead"
      }
    },
    {
      "type": "Feature",
      "geometry": {
        "type": "Point",
        "coordinates": [
          170.773995,
          -43.053699
        ]
      },
      "properties": {
        "id": "waitaha_river",
        "name": "Waitaha River Hot Springs",
        "region": "West Coast",
        "island": "South",
        "type": "private_property",
        "status": "open",
        "address": "Waitaha River",
        "geocode_status": "ok",
        "coord_source": "google_geocode",
        "rating": 2.0,
        "votes": 12,
        "sources": [
          "nzhotpools"
        ]
      }
    },
    {
      "type": "Feature",
      "geometry": {
        "type": "Point",
        "coordinates": [
          172.73073,
          -43.505722
        ]
      },
      "properties": {
        "id": "he_puna_taimoana",
        "name": "He Puna Taimoana",
        "region": "Canterbury",
        "island": "South",
        "type": "commercial",
        "status": "open",
        "address": "195 Marine Parade, New Brighton, Christchurch 8061",
        "geocode_status": "ok",
        "coord_source": "google_geocode",
        "temperature": "35-40C",
        "price": "$15 adult, $9 child",
        "description": "Est. 2020. Christchurch's only hot saltwater pool facility. Five-pool complex on New Brighton foreshore facing Pacific.",
        "sources": [
          "nzhotpools",
          "newswire"
        ]
      }
    },
    {
      "type": "Feature",
      "geometry": {
        "type": "Point",
        "coordinates": [
          171.6483,
          -43.623567
        ]
      },
      "properties": {
        "id": "opuke_thermal_pools",
        "name": "Opuke Thermal Pools & Spa",
        "region": "Canterbury",
        "island": "South",
        "type": "commercial",
        "status": "open",
        "address": "35 Mount Hutt Station Road, Methven 7782",
        "geocode_status": "ok",
        "coord_source": "google_geocode",
        "rating": 7.0,
        "votes": 1,
        "temperature": "32-40C",
        "price": "$45-95 depending on tier",
        "description": "Est. 2021. Largest new NZ thermal complex of post-2020 era. Solar-heated. Alpine setting looking up at Mt Hutt.",
        "sources": [
          "nzhotpools",
          "hotspringsguides",
          "newswire"
        ]
      }
    },
    {
      "type": "Feature",
      "geometry": {
        "type": "Point",
        "coordinates": [
          169.968373,
          -44.485641
        ]
      },
      "properties": {
        "id": "hot_tubs_omarama",
        "name": "Hot Tubs Omarama",
        "region": "Canterbury",
        "island": "South",
        "type": "commercial",
        "status": "open",
        "address": "29 Omarama Ave, Omarama",
        "geocode_status": "ok",
        "coord_source": "google_geocode",
        "rating": 8.67,
        "votes": 15,
        "sources": [
          "nzhotpools"
        ]
      }
    },
    {
      "type": "Feature",
      "geometry": {
        "type": "Point",
        "coordinates": [
          172.328522,
          -42.608833
        ]
      },
      "properties": {
        "id": "horseshoe_hot_springs",
        "name": "Horseshoe Hot Springs",
        "region": "Canterbury",
        "island": "South",
        "type": "in_nature",
        "status": "open",
        "address": "3km downstream of where SH 7 crosses Hope River",
        "geocode_status": "ok",
        "coord_source": "google_geocode",
        "sources": [
          "nzhotpools"
        ]
      }
    },
    {
      "type": "Feature",
      "geometry": {
        "type": "Point",
        "coordinates": [
          172.674321,
          -42.426002
        ]
      },
      "properties": {
        "id": "cow_stream",
        "name": "Cow Stream Hot Spring, Hanmer Springs",
        "region": "Canterbury",
        "island": "South",
        "type": "in_nature",
        "status": "open",
        "address": "North of Hanmer Forest Park, Hanmer Springs",
        "geocode_status": "ok",
        "coord_source": "google_geocode",
        "rating": 5.08,
        "votes": 13,
        "temperature": "32-38C",
        "price": "Free; 1.5-hour bush walk",
        "description": "Most-known wilderness pool in Hanmer Springs area. Small pool fits 2-3 people. Informal track, not signposted.",
        "sources": [
          "nzhotpools",
          "newswire"
        ]
      }
    },
    {
      "type": "Feature",
      "geometry": {
        "type": "Point",
        "coordinates": [
          172.593373,
          -42.800934
        ]
      },
      "properties": {
        "id": "hurunui_north",
        "name": "Hurunui River (North Branch) Hot Springs",
        "region": "Canterbury",
        "island": "South",
        "type": "in_nature",
        "status": "open",
        "address": "Hurunui River, North of Lake Taylor, Lake Sumner Forest Park",
        "geocode_status": "ok",
        "coord_source": "google_geocode",
        "rating": 8.4,
        "votes": 5,
        "temperature": "30-38C",
        "price": "Free; multi-day tramp required",
        "description": "Accessed via Lake Sumner/Hurunui Tramping Track. 5-6 hours from road end. Hurunui Hut (DOC) is night-stop.",
        "sources": [
          "nzhotpools",
          "newswire",
          "wikipedia"
        ]
      }
    },
    {
      "type": "Feature",
      "geometry": {
        "type": "Point",
        "coordinates": [
          170.276733,
          -43.833625
        ]
      },
      "properties": {
        "id": "mackenzie_stream",
        "name": "Mackenzie Stream Hot Springs",
        "region": "Canterbury",
        "island": "South",
        "type": "in_nature",
        "status": "open",
        "address": "Mackenzie Stream, Hurunui River",
        "geocode_status": "ok",
        "coord_source": "google_geocode",
        "rating": 6.25,
        "votes": 4,
        "sources": [
          "nzhotpools"
        ]
      }
    },
    {
      "type": "Feature",
      "geometry": {
        "type": "Point",
        "coordinates": [
          171.163725,
          -43.754227
        ]
      },
      "properties": {
        "id": "top_hope",
        "name": "Top Hope Hot Springs",
        "region": "Canterbury",
        "island": "South",
        "type": "in_nature",
        "status": "open",
        "address": "Hope River, 27km from State Highway 7",
        "geocode_status": "ok",
        "coord_source": "google_geocode",
        "rating": 5.5,
        "votes": 4,
        "sources": [
          "nzhotpools"
        ]
      }
    },
    {
      "type": "Feature",
      "geometry": {
        "type": "Point",
        "coordinates": [
          172.393586,
          -42.475653
        ]
      },
      "properties": {
        "id": "sylvia_flats",
        "name": "Sylvia Flats Hot Springs",
        "region": "Canterbury",
        "island": "South",
        "type": "in_nature",
        "status": "destroyed",
        "address": "State Highway 7, 15km south of Lewis Pass",
        "geocode_status": "ok",
        "coord_source": "google_geocode",
        "rating": 5.55,
        "votes": 33,
        "temperature": "35-40C",
        "price": "Free; 5 min walk from highway",
        "description": "Destroyed by slip 20 Jan 2017. Was most accessible South Island wilderness hot pool - 5 min walk from SH7 Lewis Pass.",
        "sources": [
          "nzhotpools",
          "newswire",
          "wikipedia"
        ]
      }
    },
    {
      "type": "Feature",
      "geometry": {
        "type": "Point",
        "coordinates": [
          172.192927,
          -42.815732
        ]
      },
      "properties": {
        "id": "hurunui_south",
        "name": "Hurunui River (South Branch) Hot Springs",
        "region": "Canterbury",
        "island": "South",
        "type": "in_nature",
        "status": "open",
        "address": "Hurunui River, South of Lake Taylor",
        "geocode_status": "ok",
        "coord_source": "google_geocode",
        "rating": 3.33,
        "votes": 6,
        "sources": [
          "nzhotpools"
        ]
      }
    },
    {
      "type": "Feature",
      "geometry": {
        "type": "Point",
        "coordinates": [
          172.828901,
          -42.525588
        ]
      },
      "properties": {
        "id": "hanmer_springs",
        "name": "Hanmer Springs Thermal Reserve",
        "region": "Canterbury",
        "island": "South",
        "type": "commercial",
        "status": "open",
        "address": "Corner Jacks Pass Road & Amuri Avenue, Hanmer Springs",
        "geocode_status": "ok",
        "coord_source": "google_geocode",
        "rating": 6.35,
        "votes": 17,
        "temperature": "32-42C across 22 pools",
        "price": "$32 adult, $20 child",
        "description": "Est. 1883. 22 alpine geothermal pools, waterslides, sulphur pools, steam rooms, day spa. 90 min from Christchurch.",
        "sources": [
          "nzhotpools",
          "hotspringsguides",
          "newswire",
          "wikipedia"
        ]
      }
    },
    {
      "type": "Feature",
      "geometry": {
        "type": "Point",
        "coordinates": [
          170.476237,
          -44.003968
        ]
      },
      "properties": {
        "id": "tekapo_springs",
        "name": "Tekapo Springs",
        "region": "Canterbury",
        "island": "South",
        "type": "commercial",
        "status": "open",
        "address": "Lake Tekapo, Canterbury",
        "geocode_status": "ok",
        "coord_source": "google_geocode",
        "rating": 6.25,
        "votes": 4,
        "temperature": "28-39C across 3 pools",
        "price": "$32 adult, $20 child",
        "description": "Est. 2007. Heated freshwater (not naturally thermal). Lake Tekapo / Aoraki views. Ice skating and snow tubing in winter.",
        "sources": [
          "nzhotpools",
          "hotspringsguides",
          "newswire"
        ]
      }
    },
    {
      "type": "Feature",
      "geometry": {
        "type": "Point",
        "coordinates": [
          169.203088,
          -45.033756
        ]
      },
      "properties": {
        "id": "river_rock_estate",
        "name": "River Rock Estate",
        "region": "Otago",
        "island": "South",
        "type": "commercial",
        "status": "open",
        "address": "1 Shortcut Road, Central Otago, Cromwell 9310",
        "geocode_status": "ok",
        "coord_source": "google_geocode",
        "sources": [
          "nzhotpools"
        ]
      }
    },
    {
      "type": "Feature",
      "geometry": {
        "type": "Point",
        "coordinates": [
          168.686141,
          -44.980468
        ]
      },
      "properties": {
        "id": "onsen_hot_pools",
        "name": "Onsen Hot Pools",
        "region": "Otago",
        "island": "South",
        "type": "commercial",
        "status": "open",
        "address": "160 Arthurs Point Rd, Arthurs Point, Queenstown",
        "geocode_status": "ok",
        "coord_source": "google_geocode",
        "rating": 7.63,
        "votes": 8,
        "temperature": "38-40C",
        "price": "$110-130 per person (private sessions)",
        "description": "Est. 2014. Private cedar tubs over Shotover Canyon. Heated water (not naturally thermal). Booking required.",
        "sources": [
          "nzhotpools",
          "hotspringsguides",
          "newswire"
        ]
      }
    },
    {
      "type": "Feature",
      "geometry": {
        "type": "Point",
        "coordinates": [
          167.827228,
          -47.010321
        ]
      },
      "properties": {
        "id": "murrays_beach",
        "name": "Murray's Beach hot pool",
        "region": "Stewart Island",
        "island": "South",
        "type": "in_nature",
        "status": "open",
        "address": "Stewart Island",
        "geocode_status": "ok",
        "coord_source": "google_geocode",
        "temperature": "~30C",
        "price": "Free",
        "description": "Southernmost natural hot spring in NZ. Walk-in only, small pool, not consistently warm.",
        "sources": [
          "newswire"
        ]
      }
    },
    {
      "type": "Feature",
      "geometry": {
        "type": "Point",
        "coordinates": [
          170.154757,
          -45.479067
        ]
      },
      "properties": {
        "id": "butlers_hot_springs",
        "name": "Butlers Hot Springs",
        "region": "Otago",
        "island": "South",
        "type": "in_nature",
        "status": "open",
        "address": "Mt Aspiring National Park, Routeburn area",
        "geocode_status": "ok",
        "coord_source": "google_geocode",
        "temperature": "~28C",
        "price": "Free; serious multi-day tramp required",
        "description": "Multi-day off-track tramp in Mt Aspiring National Park. Lukewarm seep. Not for casual visitors.",
        "sources": [
          "newswire"
        ]
      }
    },
    {
      "type": "Feature",
      "geometry": {
        "type": "Point",
        "coordinates": [
          176.741637,
          -38.102705
        ]
      },
      "properties": {
        "id": "broadlands",
        "name": "Broadlands",
        "region": "Bay of Plenty",
        "island": "North",
        "type": "in_nature",
        "status": "open",
        "address": "Broadlands, near Rotorua",
        "geocode_status": "ok",
        "coord_source": "google_geocode",
        "sources": [
          "wikipedia"
        ]
      }
    },
    {
      "type": "Feature",
      "geometry": {
        "type": "Point",
        "coordinates": [
          176.394998,
          -38.283432
        ]
      },
      "properties": {
        "id": "frying_pan_lake",
        "name": "Frying Pan Lake (Waimangu Cauldron)",
        "region": "Bay of Plenty",
        "island": "North",
        "type": "geothermal_park",
        "status": "open",
        "address": "Waimangu Volcanic Rift Valley, near Rotorua",
        "geocode_status": "ok",
        "coord_source": "google_geocode",
        "description": "World's largest hot spring. Part of Waimangu Volcanic Rift Valley. No bathing.",
        "sources": [
          "wikipedia"
        ]
      }
    },
    {
      "type": "Feature",
      "geometry": {
        "type": "Point",
        "coordinates": [
          175.653257,
          -39.103086
        ]
      },
      "properties": {
        "id": "ketetahi_springs",
        "name": "Ketetahi Springs",
        "region": "Waikato",
        "island": "North",
        "type": "geothermal_park",
        "status": "open",
        "address": "Tongariro National Park, near Mount Ruapehu",
        "geocode_status": "ok",
        "coord_source": "google_geocode",
        "description": "Geothermal springs on the Tongariro Alpine Crossing. Private land, no bathing.",
        "sources": [
          "wikipedia"
        ]
      }
    },
    {
      "type": "Feature",
      "geometry": {
        "type": "Point",
        "coordinates": [
          175.023346,
          -37.619086
        ]
      },
      "properties": {
        "id": "mount_ruapehu",
        "name": "Mount Ruapehu thermal springs",
        "region": "Waikato",
        "island": "North",
        "type": "in_nature",
        "status": "open",
        "address": "Mount Ruapehu, Tongariro National Park",
        "geocode_status": "ok",
        "coord_source": "google_geocode",
        "sources": [
          "wikipedia"
        ]
      }
    },
    {
      "type": "Feature",
      "geometry": {
        "type": "Point",
        "coordinates": [
          175.667887,
          -37.375534
        ]
      },
      "properties": {
        "id": "paeroa",
        "name": "Paeroa hot springs",
        "region": "Waikato",
        "island": "North",
        "type": "in_nature",
        "status": "open",
        "address": "Paeroa",
        "geocode_status": "ok",
        "coord_source": "google_geocode",
        "sources": [
          "wikipedia"
        ]
      }
    },
    {
      "type": "Feature",
      "geometry": {
        "type": "Point",
        "coordinates": [
          175.862693,
          -38.220211
        ]
      },
      "properties": {
        "id": "tokoroa",
        "name": "Tokoroa hot springs",
        "region": "Waikato",
        "island": "North",
        "type": "in_nature",
        "status": "open",
        "address": "Tokoroa",
        "geocode_status": "ok",
        "coord_source": "google_geocode",
        "sources": [
          "wikipedia"
        ]
      }
    },
    {
      "type": "Feature",
      "geometry": {
        "type": "Point",
        "coordinates": [
          176.703639,
          -38.086578
        ]
      },
      "properties": {
        "id": "kawerau",
        "name": "Kawerau hot springs",
        "region": "Bay of Plenty",
        "island": "North",
        "type": "in_nature",
        "status": "open",
        "address": "Kawerau",
        "geocode_status": "ok",
        "coord_source": "google_geocode",
        "sources": [
          "wikipedia"
        ]
      }
    },
    {
      "type": "Feature",
      "geometry": {
        "type": "Point",
        "coordinates": [
          175.918004,
          -37.55173
        ]
      },
      "properties": {
        "id": "katikati",
        "name": "Katikati hot springs",
        "region": "Bay of Plenty",
        "island": "North",
        "type": "in_nature",
        "status": "open",
        "address": "Katikati",
        "geocode_status": "ok",
        "coord_source": "google_geocode",
        "sources": [
          "wikipedia"
        ]
      }
    },
    {
      "type": "Feature",
      "geometry": {
        "type": "Point",
        "coordinates": [
          175.744674,
          -38.947513
        ]
      },
      "properties": {
        "id": "waihi_village",
        "name": "Waihi Village, Tokaanu",
        "region": "Taupo",
        "island": "North",
        "type": "in_nature",
        "status": "open",
        "address": "Waihi Village, Tokaanu, near Turangi",
        "geocode_status": "ok",
        "coord_source": "google_geocode",
        "sources": [
          "wikipedia"
        ]
      }
    },
    {
      "type": "Feature",
      "geometry": {
        "type": "Point",
        "coordinates": [
          175.88152,
          -38.932315
        ]
      },
      "properties": {
        "id": "motuoapa",
        "name": "Motuoapa hot springs",
        "region": "Taupo",
        "island": "North",
        "type": "in_nature",
        "status": "open",
        "address": "Motuoapa, near Turangi",
        "geocode_status": "ok",
        "coord_source": "google_geocode",
        "sources": [
          "wikipedia"
        ]
      }
    },
    {
      "type": "Feature",
      "geometry": {
        "type": "Point",
        "coordinates": [
          174.053844,
          -39.061718
        ]
      },
      "properties": {
        "id": "taranaki_thermal",
        "name": "Taranaki Thermal Springs",
        "region": "Taranaki",
        "island": "North",
        "type": "in_nature",
        "status": "open",
        "address": "Taranaki",
        "geocode_status": "ok",
        "coord_source": "google_geocode",
        "sources": [
          "wikipedia"
        ]
      }
    }
  ]
}